{
  "type": "FeatureCollection",
  "features": [
    {
      "type": "Feature",
      "properties": {
        "norad_id": 34998,
        "name": "COSMOS 2251 DEB",
        "group": "cosmos-2251-debris",
        "lat": -17.64436495382133,
        "lon": 171.51571927117803,
        "alt_km": 718.7840808549872,
        "timestamp": "2025-12-03T19:33:07.373008+00:00",
        "meta_object_name": "COSMOS 2251 DEB",
        "meta_object_id": "1993-036AFW",
        "meta_epoch": "2025-12-03T00:27:28.459296",
        "meta_mean_motion": 14.49214927,
        "meta_eccentricity": 0.00207984,
        "meta_inclination": 74.0093,
        "meta_ra_of_asc_node": 178.2428,
        "meta_arg_of_pericenter": 324.9753,
        "meta_mean_anomaly": 187.6358,
        "meta_ephemeris_type": 0,
        "meta_classification_type": "U",
        "meta_norad_cat_id": 34998,
        "meta_element_set_no": 999,
        "meta_rev_at_epoch": 87279,
        "meta_bstar": 0.00066768373,
        "meta_mean_motion_dot": 2.523e-05,
        "meta_mean_motion_ddot": 0,
        "tle_line1": "1 34998U 93036AFW 25337.01907939  .00002523  00000+0  66768-3 0  9999",
        "tle_line2": "2 34998  74.0093 178.2428 0020798 324.9753 187.6358 14.49214927872793"
      },
      "geometry": {
        "type": "Point",
        "coordinates": [
          171.51571927117803,
          -17.64436495382133
        ]
      }
    },
    {
      "type": "Feature",
      "properties": {
        "norad_id": 35000,
        "name": "COSMOS 2251 DEB",
        "group": "cosmos-2251-debris",
        "lat": 35.838335975562636,
        "lon": -129.6363964518499,
        "alt_km": 367.3864875545278,
        "timestamp": "2025-12-03T19:33:07.373018+00:00",
        "meta_object_name": "COSMOS 2251 DEB",
        "meta_object_id": "1993-036AFY",
        "meta_epoch": "2025-12-01T03:01:08.937696",
        "meta_mean_motion": 15.64973748,
        "meta_eccentricity": 0.00107373,
        "meta_inclination": 74.0059,
        "meta_ra_of_asc_node": 224.4619,
        "meta_arg_of_pericenter": 189.9912,
        "meta_mean_anomaly": 170.1097,
        "meta_ephemeris_type": 0,
        "meta_classification_type": "U",
        "meta_norad_cat_id": 35000,
        "meta_element_set_no": 999,
        "meta_rev_at_epoch": 88332,
        "meta_bstar": 0.0058109544,
        "meta_mean_motion_dot": 0.00615456,
        "meta_mean_motion_ddot": 0,
        "tle_line1": "1 35000U 93036AFY 25335.12579789  .00615456  00000+0  58110-2 0  9998",
        "tle_line2": "2 35000  74.0059 224.4619 0010737 189.9912 170.1097 15.64973748883323"
      },
      "geometry": {
        "type": "Point",
        "coordinates": [
          -129.6363964518499,
          35.838335975562636
        ]
      }
    },
    {
      "type": "Feature",
      "properties": {
        "norad_id": 35012,
        "name": "COSMOS 2251 DEB",
        "group": "cosmos-2251-debris",
        "lat": 67.88063370788781,
        "lon": 173.23265276979558,
        "alt_km": 789.240130497983,
        "timestamp": "2025-12-03T19:33:07.373028+00:00",
        "meta_object_name": "COSMOS 2251 DEB",
        "meta_object_id": "1993-036AFZ",
        "meta_epoch": "2025-11-29T10:33:51.837120",
        "meta_mean_motion": 14.45521065,
        "meta_eccentricity": 0.0081636,
        "meta_inclination": 74.0181,
        "meta_ra_of_asc_node": 136.5568,
        "meta_arg_of_pericenter": 279.5143,
        "meta_mean_anomaly": 79.6796,
        "meta_ephemeris_type": 0,
        "meta_classification_type": "U",
        "meta_norad_cat_id": 35012,
        "meta_element_set_no": 999,
        "meta_rev_at_epoch": 87369,
        "meta_bstar": 0.00015191388,
        "meta_mean_motion_dot": 5.29e-06,
        "meta_mean_motion_ddot": 0,
        "tle_line1": "1 35012U 93036AFZ 25333.44018330  .00000529  00000+0  15191-3 0  9996",
        "tle_line2": "2 35012  74.0181 136.5568 0081636 279.5143  79.6796 14.45521065873693"
      },
      "geometry": {
        "type": "Point",
        "coordinates": [
          173.23265276979558,
          67.88063370788781
        ]
      }
    },
    {
      "type": "Feature",
      "properties": {
        "norad_id": 35014,
        "name": "COSMOS 2251 DEB",
        "group": "cosmos-2251-debris",
        "lat": -44.049986934534985,
        "lon": 44.90715378376094,
        "alt_km": 651.3487866956511,
        "timestamp": "2025-12-03T19:33:07.373038+00:00",
        "meta_object_name": "COSMOS 2251 DEB",
        "meta_object_id": "1993-036AGB",
        "meta_epoch": "2025-11-29T00:10:14.201184",
        "meta_mean_motion": 14.74716562,
        "meta_eccentricity": 0.00081798,
        "meta_inclination": 73.9988,
        "meta_ra_of_asc_node": 70.4329,
        "meta_arg_of_pericenter": 241.0886,
        "meta_mean_anomaly": 118.9467,
        "meta_ephemeris_type": 0,
        "meta_classification_type": "U",
        "meta_norad_cat_id": 35014,
        "meta_element_set_no": 999,
        "meta_rev_at_epoch": 71134,
        "meta_bstar": 0.0017863262,
        "meta_mean_motion_dot": 0.00011934,
        "meta_mean_motion_ddot": 0,
        "tle_line1": "1 35014U 93036AGB 25333.00710881  .00011934  00000+0  17863-2 0  9999",
        "tle_line2": "2 35014  73.9988  70.4329 0008179 241.0886 118.9467 14.74716562711343"
      },
      "geometry": {
        "type": "Point",
        "coordinates": [
          44.90715378376094,
          -44.049986934534985
        ]
      }
    },
    {
      "type": "Feature",
      "properties": {
        "norad_id": 35015,
        "name": "COSMOS 2251 DEB",
        "group": "cosmos-2251-debris",
        "lat": 10.520883817287409,
        "lon": 68.4272586953158,
        "alt_km": 700.5181177187433,
        "timestamp": "2025-12-03T19:33:07.373059+00:00",
        "meta_object_name": "COSMOS 2251 DEB",
        "meta_object_id": "1993-036AGC",
        "meta_epoch": "2025-12-01T12:49:23.800800",
        "meta_mean_motion": 14.46768601,
        "meta_eccentricity": 0.00742089,
        "meta_inclination": 73.9481,
        "meta_ra_of_asc_node": 255.7738,
        "meta_arg_of_pericenter": 127.6207,
        "meta_mean_anomaly": 48.46,
        "meta_ephemeris_type": 0,
        "meta_classification_type": "U",
        "meta_norad_cat_id": 35015,
        "meta_element_set_no": 999,
        "meta_rev_at_epoch": 65278,
        "meta_bstar": 0.00081419309,
        "meta_mean_motion_dot": 3.023e-05,
        "meta_mean_motion_ddot": 0,
        "tle_line1": "1 35015U 93036AGC 25335.53430325  .00003023  00000+0  81419-3 0  9991",
        "tle_line2": "2 35015  73.9481 255.7738 0074208 127.6207  48.4600 14.46768601652784"
      },
      "geometry": {
        "type": "Point",
        "coordinates": [
          68.4272586953158,
          10.520883817287409
        ]
      }
    },
    {
      "type": "Feature",
      "properties": {
        "norad_id": 35016,
        "name": "COSMOS 2251 DEB",
        "group": "cosmos-2251-debris",
        "lat": -27.175830017019948,
        "lon": 139.4038794395486,
        "alt_km": 703.634313349854,
        "timestamp": "2025-12-03T19:33:07.373070+00:00",
        "meta_object_name": "COSMOS 2251 DEB",
        "meta_object_id": "1993-036AGD",
        "meta_epoch": "2025-12-03T09:15:41.281344",
        "meta_mean_motion": 14.3502721,
        "meta_eccentricity": 0.011501,
        "meta_inclination": 73.9297,
        "meta_ra_of_asc_node": 311.6842,
        "meta_arg_of_pericenter": 230.5843,
        "meta_mean_anomaly": 283.9594,
        "meta_ephemeris_type": 0,
        "meta_classification_type": "U",
        "meta_norad_cat_id": 35016,
        "meta_element_set_no": 999,
        "meta_rev_at_epoch": 86648,
        "meta_bstar": 0.00056137,
        "meta_mean_motion_dot": 1.695e-05,
        "meta_mean_motion_ddot": 0,
        "tle_line1": "1 35016U 93036AGD 25337.38589446  .00001695  00000+0  56137-3 0  9998",
        "tle_line2": "2 35016  73.9297 311.6842 0115010 230.5843 283.9594 14.35027210866489"
      },
      "geometry": {
        "type": "Point",
        "coordinates": [
          139.4038794395486,
          -27.175830017019948
        ]
      }
    },
    {
      "type": "Feature",
      "properties": {
        "norad_id": 35018,
        "name": "COSMOS 2251 DEB",
        "group": "cosmos-2251-debris",
        "lat": -32.57931146039664,
        "lon": 114.0975461621359,
        "alt_km": 919.0104482640709,
        "timestamp": "2025-12-03T19:33:07.373080+00:00",
        "meta_object_name": "COSMOS 2251 DEB",
        "meta_object_id": "1993-036AGF",
        "meta_epoch": "2025-12-03T03:54:20.705760",
        "meta_mean_motion": 13.67087707,
        "meta_eccentricity": 0.03484354,
        "meta_inclination": 73.9755,
        "meta_ra_of_asc_node": 125.7528,
        "meta_arg_of_pericenter": 37.0273,
        "meta_mean_anomaly": 325.4344,
        "meta_ephemeris_type": 0,
        "meta_classification_type": "U",
        "meta_norad_cat_id": 35018,
        "meta_element_set_no": 999,
        "meta_rev_at_epoch": 83055,
        "meta_bstar": 0.001039048,
        "meta_mean_motion_dot": 1.303e-05,
        "meta_mean_motion_ddot": 0,
        "tle_line1": "1 35018U 93036AGF 25337.16273965  .00001303  00000+0  10390-2 0  9998",
        "tle_line2": "2 35018  73.9755 125.7528 0348435  37.0273 325.4344 13.67087707830556"
      },
      "geometry": {
        "type": "Point",
        "coordinates": [
          114.0975461621359,
          -32.57931146039664
        ]
      }
    }
  ]
}